GLOBALSTAR M069         
1 31573U 07020C   26169.48732132 -.00000060  00000+0  29785-3 0  9992
2 31573  52.0023 248.4472 0002314 150.6920 222.3322 12.23471381878963
GLOBALSTAR M072         
1 31574U 07020D   26169.80642318 -.00000098  00000+0 -19753-3 0  9991
2 31574  51.9933  95.9343 0001430 336.4297  57.7514 11.91658336875177
GLOBALSTAR M066         
1 32265U 07048C   26169.06997917 -.00000139  00000+0 -37741-3 0  9998
2 32265  51.9605  55.3781 0005510  45.9123 100.0309 12.30387558860335
GLOBALSTAR M079         
1 37188U 10054A   26169.58555818 -.00000097  00000+0  38014-4 0  9992
2 37188  52.0035 104.4123 0000751  27.5603 142.6884 12.62266106722720
GLOBALSTAR M074         
1 37189U 10054B   26169.81607641 -.00000102  00000+0  12189-4 0  9993
2 37189  52.0011 102.9751 0000584  53.8715 324.6459 12.62268363723363
GLOBALSTAR M076         
1 37190U 10054C   26169.55922839 -.00000102  00000+0  10261-4 0  9994
2 37190  52.0023 103.9603 0000761  45.0201 125.8107 12.62261834723047
GLOBALSTAR M077         
1 37191U 10054D   26169.77513362 -.00000093  00000+0 -28265-3 0  9998
2 37191  51.9919 175.2653 0002700 175.3326 355.4146 11.67547805721329
GLOBALSTAR M075         
1 37192U 10054E   26169.65134376 -.00000120  00000+0 -90478-4 0  9997
2 37192  51.9923 145.7340 0000208  23.5628 145.9952 12.62267354722120
GLOBALSTAR M073         
1 37193U 10054F   26169.41442708 -.00000074  00000+0  16790-3 0  9994
2 37193  52.0068  60.5565 0000956  50.6685 120.2585 12.62266509724086
GLOBALSTAR M083         
1 37739U 11033A   26169.86778647 -.00000086  00000+0  97513-4 0  9997
2 37739  51.9875   7.4031 0000944  69.5123 304.0049 12.62263219693163
GLOBALSTAR M088         
1 37740U 11033B   26169.79836075 -.00000076  00000+0  15471-3 0  9992
2 37740  52.0216 274.0478 0000673 129.6168  46.6303 12.62268818688693
GLOBALSTAR M091         
1 37741U 11033C   26169.45872727 -.00000082  00000+0  11911-3 0  9992
2 37741  51.9989 238.0451 0000274 155.7412 217.3661 12.62264027689445
GLOBALSTAR M085         
1 37742U 11033D   26169.79707203 -.00000115  00000+0 -60747-4 0  9996
2 37742  52.0097 188.3073 0000150 308.9939 222.4340 12.62264160689993
GLOBALSTAR M081         
1 37743U 11033E   26169.31360899 -.00000102  00000+0  99747-5 0  9999
2 37743  51.9932 192.2140 0000106  88.4525 284.6275 12.62265121690088
GLOBALSTAR M089         
1 37744U 11033F   26169.70458933 -.00000113  00000+0 -53179-4 0  9991
2 37744  51.9908 145.1809 0000376  81.7259  89.7801 12.62267242690973
GLOBALSTAR M084         
1 38040U 11080A   26169.84140007 -.00000097  00000+0  35733-4 0  9994
2 38040  52.0027  12.2462 0001096  88.2196 285.2134 12.62267575668974
GLOBALSTAR M080         
1 38041U 11080B   26169.89195242 -.00000091  00000+0  72384-4 0  9998
2 38041  52.0077  13.8110 0000395  70.9316 302.3842 12.62269454669101
GLOBALSTAR M082         
1 38042U 11080C   26169.76910109 -.00000082  00000+0  12240-3 0  9996
2 38042  52.0100 329.6865 0000522 100.7285   4.0638 12.62263739669797
GLOBALSTAR M092         
1 38043U 11080D   26169.44077711 -.00000087  00000+0  91045-4 0  9991
2 38043  52.0095  61.0822 0000724  65.0089 106.1365 12.62267027668200
GLOBALSTAR M090         
1 38044U 11080E   26169.69662728 -.00000100  00000+0  22691-4 0  9994
2 38044  52.0141 323.8630 0000784  93.7142 280.6330 12.62269052669901
GLOBALSTAR M086         
1 38045U 11080F   26169.71806582 -.00000087  00000+0  92109-4 0  9991
2 38045  51.9916 323.7253 0001690  70.3350 302.5717 12.62286778669850
GLOBALSTAR M097         
1 39072U 13005A   26169.50903315 -.00000089  00000+0  83590-4 0  9996
2 39072  52.0038 239.3137 0000265 127.5074 232.5817 12.62247265617074
GLOBALSTAR M093         
1 39073U 13005B   26169.48222919 -.00000087  00000+0  93113-4 0  9998
2 39073  52.0094 232.7418 0000183  85.7273 274.3615 12.62266006617020
GLOBALSTAR M094         
1 39074U 13005C   26169.64048885 -.00000125  00000+0 -11745-3 0  9999
2 39074  51.9931 146.3735 0000450   7.1136 352.9737 12.62268541618658
GLOBALSTAR M096         
1 39075U 13005D   26169.81233934 -.00000110  00000+0 -36817-4 0  9992
2 39075  52.0046 194.6544 0000069 320.5178  39.5684 12.62265682617590
GLOBALSTAR M078         
1 39076U 13005E   26169.62699617 -.00000139  00000+0 -19546-3 0  9996
2 39076  51.9885 279.2262 0000515 234.3680 125.7138 12.62257758616195
GLOBALSTAR M095         
1 39077U 13005F   26169.57455536 -.00000082  00000+0  12244-3 0  9995
2 39077  52.0090 276.9921 0000207 131.3200 228.7685 12.62263467616043
GLOBALSTAR M087         
1 52888U 22064A   26169.42942036 -.00000088  00000+0  85278-4 0  9999
2 52888  52.0011  58.6706 0000779  41.3620 318.7305 12.62269089191297
